[{"OBJECT_NAME":"STARLINK-33779","OBJECT_ID":"2025-094S","EPOCH":"2026-03-09T21:49:31.022976","MEAN_MOTION":14.98353234,"ECCENTRICITY":0.00026753,"INCLINATION":70.0014,"RA_OF_ASC_NODE":234.0017,"ARG_OF_PERICENTER":271.8394,"MEAN_ANOMALY":88.2459,"EPHEMERIS_TYPE":0,"CLASSIFICATION_TYPE":"U","NORAD_CAT_ID":63880,"ELEMENT_SET_NO":999,"REV_AT_EPOCH":4723,"BSTAR":0.00050903307,"MEAN_MOTION_DOT":5.989e-5,"MEAN_MOTION_DDOT":0},{"OBJECT_NAME":"FENGYUN 1C DEB","OBJECT_ID":"1999-025BFC","EPOCH":"2026-03-04T03:22:29.060832","MEAN_MOTION":14.78422124,"ECCENTRICITY":0.00895674,"INCLINATION":99.5744,"RA_OF_ASC_NODE":32.5065,"ARG_OF_PERICENTER":215.442,"MEAN_ANOMALY":144.0814,"EPHEMERIS_TYPE":0,"CLASSIFICATION_TYPE":"U","NORAD_CAT_ID":31058,"ELEMENT_SET_NO":999,"REV_AT_EPOCH":695,"BSTAR":0.0014701595,"MEAN_MOTION_DOT":0.000114,"MEAN_MOTION_DDOT":0}]
